COSMOS 2534 [GLONASS-M] 
1 44299U 19030A   26191.12715837  .00000122  00000+0  00000+0 0  9997
2 44299  64.3705 191.8439 0013509 274.9524 182.9689  2.13102136 55418
BEIDOU-3 IGSO-2         
1 44337U 19035A   26191.80437311 -.00000093  00000+0  00000+0 0  9996
2 44337  55.2507 158.6561 0039621 216.3018 322.0982  1.00258870 25904
NAVSTAR 78 (USA 293)    
1 44506U 19056A   26190.83972038 -.00000079  00000+0  00000+0 0  9993
2 44506  55.6250 330.2434 0063211 198.0806 346.0647  2.00569870 50527
BEIDOU-3 M24            
1 44542U 19061A   26191.33146884  .00000110  00000+0  00000+0 0  9992
2 44542  54.3976 181.9474 0008584 359.5842   0.4221  1.86229274 46224
BEIDOU-3 M23            
1 44543U 19061B   26189.43788944  .00000122  00000+0  00000+0 0  9993
2 44543  54.3960 181.9796 0005860 339.6838 102.2392  1.86227401 46199
EUTELSAT 5 WEST B       
1 44624U 19067A   26191.85108566 -.00000034  00000+0  00000+0 0  9997
2 44624   0.0630 348.5984 0003017 123.0020 118.5520  1.00271339 24678
BEIDOU-3 M22            
1 44793U 19078A   26191.17164683 -.00000064  00000+0  00000+0 0  9996
2 44793  53.9138 299.0194 0005855  49.9813 310.0922  1.86227486 45076
BEIDOU-3 M21            
1 44794U 19078B   26189.16367219 -.00000063  00000+0  00000+0 0  9992
2 44794  53.8889 299.0507 0003790  48.5315 311.5256  1.86228045 45040
COSMOS 2544 [GLONASS-M] 
1 44850U 19088A   26191.49239920 -.00000023  00000+0  00000+0 0  9998
2 44850  65.5775  72.9536 0012328 255.3025 104.6227  2.13103014 51214
BEIDOU-3 M19            
1 44864U 19090A   26190.26753905 -.00000047  00000+0  00000+0 0  9990
2 44864  56.5775  62.0617 0016984 297.5653 280.0700  1.86231620 44644
BEIDOU-3 M20            
1 44865U 19090B   26191.16060929 -.00000046  00000+0  00000+0 0  9997
2 44865  56.5796  62.0669 0014879 312.5032 233.4737  1.86231480 44641
BEIDOU-3 G2             
1 45344U 20017A   26191.86788507 -.00000134  00000+0  00000+0 0  9995
2 45344   2.9090  47.6619 0002106  58.3803 215.2371  1.00269782 23495
COSMOS 2545 [GLONASS-M] 
1 45358U 20018A   26188.87178822 -.00000052  00000+0  00000+0 0  9990
2 45358  64.3418 311.6924 0009213 230.0449 129.8870  2.13102711 49103
BEIDOU-3 G3             
1 45807U 20040A   26191.87395177 -.00000347  00000+0  00000+0 0  9999
2 45807   2.5017  67.4778 0001802 329.0911 317.3230  1.00266257 22301
NAVSTAR 79 (USA 304)    
1 45854U 20041A   26191.42753133 -.00000051  00000+0  00000+0 0  9995
2 45854  56.6842  28.0432 0064914 204.5874 341.3826  2.00557843 44506
GALAXY 30 (G-30)        
1 46114U 20056C   26191.75598000  .00000000  00000+0  00000+0 0  9990
2 46114   0.0271  38.4291 0001926  76.0082 321.3874  1.00270462 21526
COSMOS 2547 [GLONASS-K] 
1 46805U 20075A   26189.53074253  .00000126  00000+0  00000+0 0  9999
2 46805  64.6013 191.7631 0009456 239.7730 120.1659  2.13100166 44369
NAVSTAR 80 (USA 309)    
1 46826U 20078A   26191.43737872  .00000110  00000+0  00000+0 0  9993
2 46826  53.9778 209.8358 0074430 207.6981 322.5291  2.00564819 41973
NAVSTAR 81 (USA 319)    
1 48859U 21054A   26191.45463917 -.00000082  00000+0  00000+0 0  9993
2 48859  55.1624 331.5250 0026341 228.5038 140.5391  2.00567302 37224
QZS-1R (MICHIBIKI-1R)   
1 49336U 21096A   26191.59113987 -.00000288  00000+0  00000+0 0  9992
2 49336  37.5070  79.2376 0754836 272.1561 282.0570  1.00246773 17248
GSAT0223 (GALILEO 27)   
1 49809U 21116A   26190.87460481 -.00000078  00000+0  00000+0 0  9991
2 49809  57.1531 341.0636 0002356 194.9735 168.6501  1.70475927 28572
GSAT0224 (GALILEO 28)   
1 49810U 21116B   26191.27355816 -.00000080  00000+0  00000+0 0  9996
2 49810  57.1533 341.0513 0001790 180.2049 180.8962  1.70475962 28607
COSMOS 2557 [GLONASS-K] 
1 52984U 22075A   26188.28712428 -.00000050  00000+0  00000+0 0  9997
2 52984  64.2858 313.7776 0010602 272.5991  87.2916  2.13102499 31144
COSMOS 2559 [GLONASS-K] 
1 54031U 22130A   26191.39162747 -.00000062  00000+0  00000+0 0  9996
2 54031  64.2561 313.7506 0013013 180.5020 179.5030  2.13101629 29188
COSMOS 2564 [GLONASS-M] 
1 54377U 22161A   26191.23479854  .00000122  00000+0  00000+0 0  9992
2 54377  64.7436 191.9466 0012253 225.0642 134.8693  2.13101971 28120
NAVSTAR 82 (USA 343)    
1 55268U 23009A   26191.13810753  .00000048  00000+0  00000+0 0  9997
2 55268  55.1237 147.6170 0006209 320.5296 218.5554  2.00569891 25705
BEIDOU-3 G4             
1 56564U 23066A   26191.87975846 -.00000272  00000+0  00000+0 0  9996
2 56564   0.4641 337.6153 0004865 187.9773 219.9515  1.00274046 11633
NVS-01 (IRNSS-1J)       
1 56759U 23076A   26191.87767845 -.00000326  00000+0  00000+0 0  9991
2 56759   2.1126 243.2933 0003492   7.3281 123.6454  1.00266738 11359
COSMOS 2569 [GLONASS-K2]
1 57517U 23114A   26189.37005779 -.00000024  00000+0  00000+0 0  9995
2 57517  65.3140  71.9064 0009907 296.3433  63.6161  2.13103724 22716
BEIDOU-3 M28            
1 58654U 23207A   26191.38850454 -.00000048  00000+0  00000+0 0  9999
2 58654  55.7733  61.5205 0002560   2.3392 357.7246  1.86229647 17277
BEIDOU-3 M26            
1 58655U 23207B   26191.18599907 -.00000048  00000+0  00000+0 0  9991
2 58655  55.7754  61.5139 0002159 324.3831  35.6646  1.86229634 17256
